[
	{
		"id": "0108",
		"districtId": "01",
		"code": "08",
		"name": "BAGERHAT SADAR",
		"bn_name": "বাগেরহাট সদর",
		"lat": "",
		"long": ""
	},
	{
		"id": "0114",
		"districtId": "01",
		"code": "14",
		"name": "CHITALMARI",
		"bn_name": "চিতলমাড়ি",
		"lat": "",
		"long": ""
	},
	{
		"id": "0134",
		"districtId": "01",
		"code": "34",
		"name": "FAKIRHAT",
		"bn_name": "ফকিরহাট",
		"lat": "",
		"long": ""
	},
	{
		"id": "0138",
		"districtId": "01",
		"code": "38",
		"name": "KACHUA",
		"bn_name": "কচুয়া",
		"lat": "",
		"long": ""
	},
	{
		"id": "0138",
		"districtId": "01",
		"code": "38",
		"name": "KACHUA",
		"bn_name": "কচুয়া",
		"lat": "",
		"long": ""
	},
	{
		"id": "0156",
		"districtId": "01",
		"code": "56",
		"name": "MOLLAHAT",
		"bn_name": "মোল্লাহাট ",
		"lat": "",
		"long": ""
	},
	{
		"id": "0158",
		"districtId": "01",
		"code": "58",
		"name": "MONGLA",
		"bn_name": "মংলা",
		"lat": "",
		"long": ""
	},
	{
		"id": "0160",
		"districtId": "01",
		"code": "60",
		"name": "MORRELGANJ",
		"bn_name": "মোড়েলগঞ্জ",
		"lat": "",
		"long": ""
	},
	{
		"id": "0173",
		"districtId": "01",
		"code": "73",
		"name": "RAMPAL",
		"bn_name": "রামপাল",
		"lat": "",
		"long": ""
	},
	{
		"id": "0177",
		"districtId": "01",
		"code": "77",
		"name": "SARANKHOLA",
		"bn_name": "শরণখোলা",
		"lat": "",
		"long": ""
	},
	{
		"id": "0304",
		"districtId": "03",
		"code": "04",
		"name": "ALIKADAM",
		"bn_name": "আলীকদম",
		"lat": "",
		"long": ""
	},
	{
		"id": "0314",
		"districtId": "03",
		"code": "14",
		"name": "BANDARBAN SADAR",
		"bn_name": "বান্দরবান সদর",
		"lat": "",
		"long": ""
	},
	{
		"id": "0351",
		"districtId": "03",
		"code": "51",
		"name": "LAMA",
		"bn_name": "লামা",
		"lat": "",
		"long": ""
	},
	{
		"id": "0373",
		"districtId": "03",
		"code": "73",
		"name": "NAIKHONGCHHARI",
		"bn_name": "নাইক্ষ্যংছড়ি",
		"lat": "",
		"long": ""
	},
	{
		"id": "0389",
		"districtId": "03",
		"code": "89",
		"name": "ROWANGCHHARI",
		"bn_name": "রোয়াংছড়ি",
		"lat": "",
		"long": ""
	},
	{
		"id": "0391",
		"districtId": "03",
		"code": "91",
		"name": "RUMA",
		"bn_name": "রুমা",
		"lat": "",
		"long": ""
	},
	{
		"id": "0395",
		"districtId": "03",
		"code": "95",
		"name": "THANCHI",
		"bn_name": "থানচি",
		"lat": "",
		"long": ""
	},
	{
		"id": "0409",
		"districtId": "04",
		"code": "09",
		"name": "AMTALI",
		"bn_name": "আমতলী",
		"lat": "",
		"long": ""
	},
	{
		"id": "0419",
		"districtId": "04",
		"code": "19",
		"name": "BAMNA",
		"bn_name": "বামনা",
		"lat": "",
		"long": ""
	},
	{
		"id": "0428",
		"districtId": "04",
		"code": "28",
		"name": "BARGUNA SADAR",
		"bn_name": "বরগুনা সদর",
		"lat": "",
		"long": ""
	},
	{
		"id": "0447",
		"districtId": "04",
		"code": "47",
		"name": "BETAGI",
		"bn_name": "বেতাগি",
		"lat": "",
		"long": ""
	},
	{
		"id": "0485",
		"districtId": "04",
		"code": "85",
		"name": "PATHARGHATA",
		"bn_name": "পাথরঘাটা",
		"lat": "",
		"long": ""
	},
	{
		"id": "0492",
		"districtId": "04",
		"code": "92",
		"name": "TALTOLI",
		"bn_name": "তালতলী",
		"lat": "",
		"long": ""
	},
	{
		"id": "0602",
		"districtId": "06",
		"code": "02",
		"name": "AGAILJHARA",
		"bn_name": "আগাইলঝরা",
		"lat": "",
		"long": ""
	},
	{
		"id": "0603",
		"districtId": "06",
		"code": "03",
		"name": "BABUGANJ",
		"bn_name": "বাবুগঞ্জ",
		"lat": "",
		"long": ""
	},
	{
		"id": "0607",
		"districtId": "06",
		"code": "07",
		"name": "BAKERGANJ",
		"bn_name": "বাকেরগঞ্জ",
		"lat": "",
		"long": ""
	},
	{
		"id": "0610",
		"districtId": "06",
		"code": "10",
		"name": "BANARI PARA",
		"bn_name": "বানাড়িপারা",
		"lat": "",
		"long": ""
	},
	{
		"id": "0632",
		"districtId": "06",
		"code": "32",
		"name": "GAURNADI",
		"bn_name": "গৌরনদী",
		"lat": "",
		"long": ""
	},
	{
		"id": "0636",
		"districtId": "06",
		"code": "36",
		"name": "HIZLA",
		"bn_name": "হিজলা",
		"lat": "",
		"long": ""
	},
	{
		"id": "0651",
		"districtId": "06",
		"code": "51",
		"name": "BARISAL SADAR",
		"bn_name": "বরিশাল সদর",
		"lat": "",
		"long": ""
	},
	{
		"id": "0662",
		"districtId": "06",
		"code": "62",
		"name": "MEHENDIGANJ",
		"bn_name": "মেহেদিগঞ্জ ",
		"lat": "",
		"long": ""
	},
	{
		"id": "0669",
		"districtId": "06",
		"code": "69",
		"name": "MULADI",
		"bn_name": "মুলাদি",
		"lat": "",
		"long": ""
	},
	{
		"id": "0694",
		"districtId": "06",
		"code": "94",
		"name": "WAZIRPUR",
		"bn_name": "ওয়াজিরপুর",
		"lat": "",
		"long": ""
	},
	{
		"id": "0918",
		"districtId": "09",
		"code": "18",
		"name": "BHOLA SADAR",
		"bn_name": "ভোলা সদর",
		"lat": "",
		"long": ""
	},
	{
		"id": "0921",
		"districtId": "09",
		"code": "21",
		"name": "BURHANUDDIN",
		"bn_name": "বুরহানউদ্দিন",
		"lat": "",
		"long": ""
	},
	{
		"id": "0925",
		"districtId": "09",
		"code": "25",
		"name": "CHAR FASSON",
		"bn_name": "চর ফ্যাশন",
		"lat": "",
		"long": ""
	},
	{
		"id": "0929",
		"districtId": "09",
		"code": "29",
		"name": "DAULAT KHAN",
		"bn_name": "দৌলতখান",
		"lat": "",
		"long": ""
	},
	{
		"id": "0954",
		"districtId": "09",
		"code": "54",
		"name": "LALMOHAN",
		"bn_name": "লালমোহন",
		"lat": "",
		"long": ""
	},
	{
		"id": "0965",
		"districtId": "09",
		"code": "65",
		"name": "MANPURA",
		"bn_name": "মনপুরা",
		"lat": "",
		"long": ""
	},
	{
		"id": "0991",
		"districtId": "09",
		"code": "91",
		"name": "TAZUMUDDIN",
		"bn_name": "তাজুমুদ্দিন",
		"lat": "",
		"long": ""
	},
	{
		"id": "1006",
		"districtId": "10",
		"code": "06",
		"name": "ADAMDIGHI",
		"bn_name": "আদমদিঘী",
		"lat": "",
		"long": ""
	},
	{
		"id": "1020",
		"districtId": "10",
		"code": "20",
		"name": "BOGRA SADAR",
		"bn_name": "বগুড়া সদর",
		"lat": "",
		"long": ""
	},
	{
		"id": "1027",
		"districtId": "10",
		"code": "27",
		"name": "DHUNAT",
		"bn_name": "ধুনট",
		"lat": "",
		"long": ""
	},
	{
		"id": "1033",
		"districtId": "10",
		"code": "33",
		"name": "DHUPCHANCHIA",
		"bn_name": "দুপচাচিয়া",
		"lat": "",
		"long": ""
	},
	{
		"id": "1040",
		"districtId": "10",
		"code": "40",
		"name": "GABTALI",
		"bn_name": "গাবতলি",
		"lat": "",
		"long": ""
	},
	{
		"id": "1054",
		"districtId": "10",
		"code": "54",
		"name": "KAHALOO",
		"bn_name": "কাহালু",
		"lat": "",
		"long": ""
	},
	{
		"id": "1067",
		"districtId": "10",
		"code": "67",
		"name": "NANDIGRAM",
		"bn_name": "নন্দিগ্রাম",
		"lat": "",
		"long": ""
	},
	{
		"id": "1081",
		"districtId": "10",
		"code": "81",
		"name": "SARIAKANDI",
		"bn_name": "সারিয়াকান্দি",
		"lat": "",
		"long": ""
	},
	{
		"id": "1085",
		"districtId": "10",
		"code": "85",
		"name": "SHAJAHANPUR",
		"bn_name": "শাহজাহানপুর",
		"lat": "",
		"long": ""
	},
	{
		"id": "1088",
		"districtId": "10",
		"code": "88",
		"name": "SHERPUR",
		"bn_name": "শেরপুর",
		"lat": "",
		"long": ""
	},
	{
		"id": "1094",
		"districtId": "10",
		"code": "94",
		"name": "SHIBGANJ",
		"bn_name": "শিবগঞ্জ",
		"lat": "",
		"long": ""
	},
	{
		"id": "1094",
		"districtId": "10",
		"code": "94",
		"name": "SHIBGANJ",
		"bn_name": "শিবগঞ্জ",
		"lat": "",
		"long": ""
	},
	{
		"id": "1095",
		"districtId": "10",
		"code": "95",
		"name": "SONATOLA",
		"bn_name": "সোনাতলা",
		"lat": "",
		"long": ""
	},
	{
		"id": "1202",
		"districtId": "12",
		"code": "02",
		"name": "AKHAURA",
		"bn_name": "আখাউরা",
		"lat": "",
		"long": ""
	},
	{
		"id": "1204",
		"districtId": "12",
		"code": "04",
		"name": "BANCHHARAMPUR",
		"bn_name": "বাঞ্ছারামপুর",
		"lat": "",
		"long": ""
	},
	{
		"id": "1207",
		"districtId": "12",
		"code": "07",
		"name": "BIJOYNAGAR",
		"bn_name": "বিজয় নগর",
		"lat": "",
		"long": ""
	},
	{
		"id": "1213",
		"districtId": "12",
		"code": "13",
		"name": "BRAHMANBARIA SADAR",
		"bn_name": "ব্রাহ্মণবাড়িয়া সদর",
		"lat": "",
		"long": ""
	},
	{
		"id": "1233",
		"districtId": "12",
		"code": "33",
		"name": "ASHUGANJ",
		"bn_name": "আশুগঞ্জ",
		"lat": "",
		"long": ""
	},
	{
		"id": "1263",
		"districtId": "12",
		"code": "63",
		"name": "KASBA",
		"bn_name": "কসবা",
		"lat": "",
		"long": ""
	},
	{
		"id": "1285",
		"districtId": "12",
		"code": "85",
		"name": "NABINAGAR",
		"bn_name": "নবীনগর",
		"lat": "",
		"long": ""
	},
	{
		"id": "1290",
		"districtId": "12",
		"code": "90",
		"name": "NASIRNAGAR",
		"bn_name": "নাসির নগর",
		"lat": "",
		"long": ""
	},
	{
		"id": "1294",
		"districtId": "12",
		"code": "94",
		"name": "SARAIL",
		"bn_name": "সরাইল",
		"lat": "",
		"long": ""
	},
	{
		"id": "1322",
		"districtId": "13",
		"code": "22",
		"name": "CHANDPUR SADAR",
		"bn_name": "চাঁদপুর সদর",
		"lat": "",
		"long": ""
	},
	{
		"id": "1345",
		"districtId": "13",
		"code": "45",
		"name": "FARIDGANJ",
		"bn_name": "ফরিদগঞ্জ",
		"lat": "",
		"long": ""
	},
	{
		"id": "1347",
		"districtId": "13",
		"code": "47",
		"name": "HAIM CHAR",
		"bn_name": "হাইমচর",
		"lat": "",
		"long": ""
	},
	{
		"id": "1349",
		"districtId": "13",
		"code": "49",
		"name": "HAJIGANJ",
		"bn_name": "হাজীগঞ্জ",
		"lat": "",
		"long": ""
	},
	{
		"id": "1358",
		"districtId": "13",
		"code": "58",
		"name": "KACHUA",
		"bn_name": "কচুয়া",
		"lat": "",
		"long": ""
	},
	{
		"id": "1358",
		"districtId": "13",
		"code": "58",
		"name": "KACHUA",
		"bn_name": "কচুয়া",
		"lat": "",
		"long": ""
	},
	{
		"id": "1376",
		"districtId": "13",
		"code": "76",
		"name": "MATLAB DAKSHIN",
		"bn_name": "মতলব দক্ষিণ",
		"lat": "",
		"long": ""
	},
	{
		"id": "1379",
		"districtId": "13",
		"code": "79",
		"name": "MATLAB UTTAR",
		"bn_name": "মতলব উত্তর",
		"lat": "",
		"long": ""
	},
	{
		"id": "1395",
		"districtId": "13",
		"code": "95",
		"name": "SHAHRASTI",
		"bn_name": "শাহরাস্তি",
		"lat": "",
		"long": ""
	},
	{
		"id": "1504",
		"districtId": "15",
		"code": "04",
		"name": "ANOWARA",
		"bn_name": "আনোয়ারা",
		"lat": "",
		"long": ""
	},
	{
		"id": "1508",
		"districtId": "15",
		"code": "08",
		"name": "BANSHKHALI",
		"bn_name": "বাশখালি",
		"lat": "",
		"long": ""
	},
	{
		"id": "1512",
		"districtId": "15",
		"code": "12",
		"name": "BOALKHALI",
		"bn_name": "বোয়ালখালি",
		"lat": "",
		"long": ""
	},
	{
		"id": "1518",
		"districtId": "15",
		"code": "18",
		"name": "CHANDANAISH",
		"bn_name": "চন্দনাইশ",
		"lat": "",
		"long": ""
	},
	{
		"id": "1533",
		"districtId": "15",
		"code": "33",
		"name": "FATIKCHHARI",
		"bn_name": "ফটিকছড়ি",
		"lat": "",
		"long": ""
	},
	{
		"id": "1537",
		"districtId": "15",
		"code": "37",
		"name": "HATHAZARI",
		"bn_name": "হাঠহাজারী",
		"lat": "",
		"long": ""
	},
	{
		"id": "1547",
		"districtId": "15",
		"code": "47",
		"name": "LOHAGARA",
		"bn_name": "লোহাগারা",
		"lat": "",
		"long": ""
	},
	{
		"id": "1547",
		"districtId": "15",
		"code": "47",
		"name": "LOHAGARA",
		"bn_name": "লোহাগাড়া",
		"lat": "",
		"long": ""
	},
	{
		"id": "1553",
		"districtId": "15",
		"code": "53",
		"name": "MIRSHARAI",
		"bn_name": "মিরসরাই",
		"lat": "",
		"long": ""
	},
	{
		"id": "1561",
		"districtId": "15",
		"code": "61",
		"name": "PATIYA",
		"bn_name": "পটিয়া",
		"lat": "",
		"long": ""
	},
	{
		"id": "1570",
		"districtId": "15",
		"code": "70",
		"name": "RANGUNIA",
		"bn_name": "রাঙ্গুনিয়া",
		"lat": "",
		"long": ""
	},
	{
		"id": "1574",
		"districtId": "15",
		"code": "74",
		"name": "RAOZAN",
		"bn_name": "রাউজান",
		"lat": "",
		"long": ""
	},
	{
		"id": "1578",
		"districtId": "15",
		"code": "78",
		"name": "SANDWIP",
		"bn_name": "সন্দ্বীপ",
		"lat": "",
		"long": ""
	},
	{
		"id": "1582",
		"districtId": "15",
		"code": "82",
		"name": "SATKANIA",
		"bn_name": "সাতকানিয়া",
		"lat": "",
		"long": ""
	},
	{
		"id": "1586",
		"districtId": "15",
		"code": "86",
		"name": "SITAKUNDA",
		"bn_name": "সীতাকুণ্ড",
		"lat": "",
		"long": ""
	},
	{
		"id": "1807",
		"districtId": "18",
		"code": "07",
		"name": "ALAMDANGA",
		"bn_name": "আলমডাঙ্গা",
		"lat": "",
		"long": ""
	},
	{
		"id": "1823",
		"districtId": "18",
		"code": "23",
		"name": "CHUADANGA SADAR",
		"bn_name": "চুয়াডাঙ্গা সদর",
		"lat": "",
		"long": ""
	},
	{
		"id": "1831",
		"districtId": "18",
		"code": "31",
		"name": "DAMURHUDA",
		"bn_name": "দামুরহুদা",
		"lat": "",
		"long": ""
	},
	{
		"id": "1855",
		"districtId": "18",
		"code": "55",
		"name": "JIBAN NAGAR",
		"bn_name": "জীবন নগর ",
		"lat": "",
		"long": ""
	},
	{
		"id": "1909",
		"districtId": "19",
		"code": "09",
		"name": "BARURA",
		"bn_name": "বড়ুরা",
		"lat": "",
		"long": ""
	},
	{
		"id": "1915",
		"districtId": "19",
		"code": "15",
		"name": "BRAHMAN PARA",
		"bn_name": "ব্রাহ্মণপাড়া",
		"lat": "",
		"long": ""
	},
	{
		"id": "1918",
		"districtId": "19",
		"code": "18",
		"name": "BURICHANG",
		"bn_name": "বুড়িচং",
		"lat": "",
		"long": ""
	},
	{
		"id": "1927",
		"districtId": "19",
		"code": "27",
		"name": "CHANDINA",
		"bn_name": "চান্দিনা",
		"lat": "",
		"long": ""
	},
	{
		"id": "1931",
		"districtId": "19",
		"code": "31",
		"name": "CHAUDDAGRAM",
		"bn_name": "চৌদ্দগ্রাম",
		"lat": "",
		"long": ""
	},
	{
		"id": "1933",
		"districtId": "19",
		"code": "33",
		"name": "COMILLA SADAR DAKSHIN",
		"bn_name": "কুমিল্লা সদর দক্ষিণ",
		"lat": "",
		"long": ""
	},
	{
		"id": "1936",
		"districtId": "19",
		"code": "36",
		"name": "DAUDKANDI",
		"bn_name": "দাউদকান্দি",
		"lat": "",
		"long": ""
	},
	{
		"id": "1940",
		"districtId": "19",
		"code": "40",
		"name": "DEBIDWAR",
		"bn_name": "দেবীদ্বার",
		"lat": "",
		"long": ""
	},
	{
		"id": "1954",
		"districtId": "19",
		"code": "54",
		"name": "HOMNA",
		"bn_name": "হোমনা",
		"lat": "",
		"long": ""
	},
	{
		"id": "1967",
		"districtId": "19",
		"code": "67",
		"name": "COMILLA ADARSHA SADAR",
		"bn_name": "কুমিল্লা আদর্শ সদর",
		"lat": "",
		"long": ""
	},
	{
		"id": "1972",
		"districtId": "19",
		"code": "72",
		"name": "LAKSAM",
		"bn_name": "লাকসাম",
		"lat": "",
		"long": ""
	},
	{
		"id": "1974",
		"districtId": "19",
		"code": "74",
		"name": "MANOHARGANJ",
		"bn_name": "মনোহরগঞ্জ",
		"lat": "",
		"long": ""
	},
	{
		"id": "1975",
		"districtId": "19",
		"code": "75",
		"name": "MEGHNA",
		"bn_name": "মেঘনা",
		"lat": "",
		"long": ""
	},
	{
		"id": "1981",
		"districtId": "19",
		"code": "81",
		"name": "MURADNAGAR",
		"bn_name": "মুরাদনগর",
		"lat": "",
		"long": ""
	},
	{
		"id": "1987",
		"districtId": "19",
		"code": "87",
		"name": "NANGALKOT",
		"bn_name": "নাঙ্গালকোট",
		"lat": "",
		"long": ""
	},
	{
		"id": "1994",
		"districtId": "19",
		"code": "94",
		"name": "TITAS",
		"bn_name": "তিতাস",
		"lat": "",
		"long": ""
	},
	{
		"id": "2216",
		"districtId": "22",
		"code": "16",
		"name": "CHAKARIA",
		"bn_name": "চকরিয়া",
		"lat": "",
		"long": ""
	},
	{
		"id": "2224",
		"districtId": "22",
		"code": "24",
		"name": "COX'S BAZAR SADAR",
		"bn_name": "কক্স বাজার সদর",
		"lat": "",
		"long": ""
	},
	{
		"id": "2245",
		"districtId": "22",
		"code": "45",
		"name": "KUTUBDIA",
		"bn_name": "কুতুবদিয়া",
		"lat": "",
		"long": ""
	},
	{
		"id": "2249",
		"districtId": "22",
		"code": "49",
		"name": "MAHESHKHALI",
		"bn_name": "মহেশখালী",
		"lat": "",
		"long": ""
	},
	{
		"id": "2256",
		"districtId": "22",
		"code": "56",
		"name": "PEKUA",
		"bn_name": "পেকুয়া",
		"lat": "",
		"long": ""
	},
	{
		"id": "2266",
		"districtId": "22",
		"code": "66",
		"name": "RAMU",
		"bn_name": "রামু",
		"lat": "",
		"long": ""
	},
	{
		"id": "2290",
		"districtId": "22",
		"code": "90",
		"name": "TEKNAF",
		"bn_name": "টেকনাফ",
		"lat": "",
		"long": ""
	},
	{
		"id": "2294",
		"districtId": "22",
		"code": "94",
		"name": "UKHIA",
		"bn_name": "উখিয়া",
		"lat": "",
		"long": ""
	},
	{
		"id": "2614",
		"districtId": "26",
		"code": "14",
		"name": "DHAMRAI",
		"bn_name": "ধামরাই",
		"lat": "",
		"long": ""
	},
	{
		"id": "2618",
		"districtId": "26",
		"code": "18",
		"name": "DOHAR",
		"bn_name": "দোহার",
		"lat": "",
		"long": ""
	},
	{
		"id": "2638",
		"districtId": "26",
		"code": "38",
		"name": "KERANIGANJ",
		"bn_name": "কেরানীগঞ্জ",
		"lat": "",
		"long": ""
	},
	{
		"id": "2648",
		"districtId": "26",
		"code": "48",
		"name": "MIRPUR",
		"bn_name": "মিরপুর",
		"lat": "",
		"long": ""
	},
	{
		"id": "2650",
		"districtId": "26",
		"code": "50",
		"name": "MOHAMMADPUR",
		"bn_name": "মোহাম্মাদপুর",
		"lat": "",
		"long": ""
	},
	{
		"id": "2662",
		"districtId": "26",
		"code": "62",
		"name": "NAWABGANJ",
		"bn_name": "নবাবগঞ্জ",
		"lat": "",
		"long": ""
	},
	{
		"id": "2662",
		"districtId": "26",
		"code": "62",
		"name": "NAWABGANJ",
		"bn_name": "নবাবগঞ্জ",
		"lat": "",
		"long": ""
	},
	{
		"id": "2672",
		"districtId": "26",
		"code": "72",
		"name": "SAVAR",
		"bn_name": "সাভার",
		"lat": "",
		"long": ""
	},
	{
		"id": "2710",
		"districtId": "27",
		"code": "10",
		"name": "BIRAMPUR",
		"bn_name": "বিরামপুর",
		"lat": "",
		"long": ""
	},
	{
		"id": "2712",
		"districtId": "27",
		"code": "12",
		"name": "BIRGANJ",
		"bn_name": "বীরগঞ্জ",
		"lat": "",
		"long": ""
	},
	{
		"id": "2717",
		"districtId": "27",
		"code": "17",
		"name": "BIRAL",
		"bn_name": "বিড়াল",
		"lat": "",
		"long": ""
	},
	{
		"id": "2721",
		"districtId": "27",
		"code": "21",
		"name": "BOCHAGANJ",
		"bn_name": "বোচাগঞ্জ",
		"lat": "",
		"long": ""
	},
	{
		"id": "2730",
		"districtId": "27",
		"code": "30",
		"name": "CHIRIRBANDAR",
		"bn_name": "চিরিরবন্দর",
		"lat": "",
		"long": ""
	},
	{
		"id": "2743",
		"districtId": "27",
		"code": "43",
		"name": "GHORAGHAT",
		"bn_name": "ঘোড়াঘাট",
		"lat": "",
		"long": ""
	},
	{
		"id": "2747",
		"districtId": "27",
		"code": "47",
		"name": "HAKIMPUR",
		"bn_name": "হাকিমপুর",
		"lat": "",
		"long": ""
	},
	{
		"id": "2756",
		"districtId": "27",
		"code": "56",
		"name": "KAHAROLE",
		"bn_name": "কাহারোল",
		"lat": "",
		"long": ""
	},
	{
		"id": "2760",
		"districtId": "27",
		"code": "60",
		"name": "KHANSAMA",
		"bn_name": "খানসামা",
		"lat": "",
		"long": ""
	},
	{
		"id": "2764",
		"districtId": "27",
		"code": "64",
		"name": "DINAJPUR SADAR",
		"bn_name": "দিনাজপুর সদর",
		"lat": "",
		"long": ""
	},
	{
		"id": "2769",
		"districtId": "27",
		"code": "69",
		"name": "NAWABGANJ",
		"bn_name": "নবাবগঞ্জ",
		"lat": "",
		"long": ""
	},
	{
		"id": "2769",
		"districtId": "27",
		"code": "69",
		"name": "NAWABGANJ",
		"bn_name": "নবাবগঞ্জ",
		"lat": "",
		"long": ""
	},
	{
		"id": "2777",
		"districtId": "27",
		"code": "77",
		"name": "PARBATIPUR",
		"bn_name": "পার্বতীপুর",
		"lat": "",
		"long": ""
	},
	{
		"id": "2903",
		"districtId": "29",
		"code": "03",
		"name": "ALFADANGA",
		"bn_name": "আলফাডাঙ্গা",
		"lat": "",
		"long": ""
	},
	{
		"id": "2910",
		"districtId": "29",
		"code": "10",
		"name": "BHANGA",
		"bn_name": "ভাঙ্গা",
		"lat": "",
		"long": ""
	},
	{
		"id": "2918",
		"districtId": "29",
		"code": "18",
		"name": "BOALMARI",
		"bn_name": "বোয়ালমারী",
		"lat": "",
		"long": ""
	},
	{
		"id": "2921",
		"districtId": "29",
		"code": "21",
		"name": "CHAR BHADRASAN",
		"bn_name": "চরভদ্রাসন ",
		"lat": "",
		"long": ""
	},
	{
		"id": "2947",
		"districtId": "29",
		"code": "47",
		"name": "FARIDPUR SADAR",
		"bn_name": "ফরিদপুর সদর",
		"lat": "",
		"long": ""
	},
	{
		"id": "2956",
		"districtId": "29",
		"code": "56",
		"name": "MADHUKHALI",
		"bn_name": "মধুখালি",
		"lat": "",
		"long": ""
	},
	{
		"id": "2962",
		"districtId": "29",
		"code": "62",
		"name": "NAGARKANDA",
		"bn_name": "নগরকান্দা",
		"lat": "",
		"long": ""
	},
	{
		"id": "2984",
		"districtId": "29",
		"code": "84",
		"name": "SADARPUR",
		"bn_name": "সদরপুর",
		"lat": "",
		"long": ""
	},
	{
		"id": "2990",
		"districtId": "29",
		"code": "90",
		"name": "SALTHA",
		"bn_name": "সালথা",
		"lat": "",
		"long": ""
	},
	{
		"id": "3014",
		"districtId": "30",
		"code": "14",
		"name": "CHHAGALNAIYA",
		"bn_name": "ছাগল নাইয়া",
		"lat": "",
		"long": ""
	},
	{
		"id": "3025",
		"districtId": "30",
		"code": "25",
		"name": "DAGANBHUIYAN",
		"bn_name": "দাগানভিয়া",
		"lat": "",
		"long": ""
	},
	{
		"id": "3029",
		"districtId": "30",
		"code": "29",
		"name": "FENI SADAR",
		"bn_name": "ফেনী সদর",
		"lat": "",
		"long": ""
	},
	{
		"id": "3041",
		"districtId": "30",
		"code": "41",
		"name": "FULGAZI",
		"bn_name": "ফুলগাজি",
		"lat": "",
		"long": ""
	},
	{
		"id": "3051",
		"districtId": "30",
		"code": "51",
		"name": "PARSHURAM",
		"bn_name": "পরশুরাম",
		"lat": "",
		"long": ""
	},
	{
		"id": "3094",
		"districtId": "30",
		"code": "94",
		"name": "SONAGAZI",
		"bn_name": "সোনাগাজি",
		"lat": "",
		"long": ""
	},
	{
		"id": "3221",
		"districtId": "32",
		"code": "21",
		"name": "FULCHHARI",
		"bn_name": "ফুলছড়ি",
		"lat": "",
		"long": ""
	},
	{
		"id": "3224",
		"districtId": "32",
		"code": "24",
		"name": "GAIBANDHA SADAR",
		"bn_name": "গাইবান্ধা সদর",
		"lat": "",
		"long": ""
	},
	{
		"id": "3230",
		"districtId": "32",
		"code": "30",
		"name": "GOBINDAGANJ",
		"bn_name": "গোবিন্দগঞ্জ",
		"lat": "",
		"long": ""
	},
	{
		"id": "3267",
		"districtId": "32",
		"code": "67",
		"name": "PALASHBARI",
		"bn_name": "পলাশবাড়ী",
		"lat": "",
		"long": ""
	},
	{
		"id": "3282",
		"districtId": "32",
		"code": "82",
		"name": "SADULLAPUR",
		"bn_name": "সাদুল্যাপুর",
		"lat": "",
		"long": ""
	},
	{
		"id": "3288",
		"districtId": "32",
		"code": "88",
		"name": "SAGHATA",
		"bn_name": "সাঘাটা",
		"lat": "",
		"long": ""
	},
	{
		"id": "3291",
		"districtId": "32",
		"code": "91",
		"name": "SUNDARGANJ",
		"bn_name": "সুন্দরগঞ্জ",
		"lat": "",
		"long": ""
	},
	{
		"id": "3330",
		"districtId": "33",
		"code": "30",
		"name": "GAZIPUR SADAR",
		"bn_name": "গাজীপুর সদর",
		"lat": "",
		"long": ""
	},
	{
		"id": "3332",
		"districtId": "33",
		"code": "32",
		"name": "KALIAKAIR",
		"bn_name": "কালিয়াকৈর",
		"lat": "",
		"long": ""
	},
	{
		"id": "3334",
		"districtId": "33",
		"code": "34",
		"name": "KALIGANJ",
		"bn_name": "কালীগঞ্জ",
		"lat": "",
		"long": ""
	},
	{
		"id": "3334",
		"districtId": "33",
		"code": "34",
		"name": "KALIGANJ",
		"bn_name": "কালীগঞ্জ",
		"lat": "",
		"long": ""
	},
	{
		"id": "3334",
		"districtId": "33",
		"code": "34",
		"name": "KALIGANJ",
		"bn_name": "কালীগঞ্জ",
		"lat": "",
		"long": ""
	},
	{
		"id": "3334",
		"districtId": "33",
		"code": "34",
		"name": "KALIGANJ",
		"bn_name": "কালীগঞ্জ",
		"lat": "",
		"long": ""
	},
	{
		"id": "3336",
		"districtId": "33",
		"code": "36",
		"name": "KAPASIA",
		"bn_name": "কাপাসিয়া",
		"lat": "",
		"long": ""
	},
	{
		"id": "3386",
		"districtId": "33",
		"code": "86",
		"name": "SREEPUR",
		"bn_name": "শ্রীপুর",
		"lat": "",
		"long": ""
	},
	{
		"id": "3386",
		"districtId": "33",
		"code": "86",
		"name": "SREEPUR",
		"bn_name": "শ্রীপুর",
		"lat": "",
		"long": ""
	},
	{
		"id": "3387",
		"districtId": "33",
		"code": "87",
		"name": "TONGI",
		"bn_name": "টঙ্গি",
		"lat": "",
		"long": ""
	},
	{
		"id": "3532",
		"districtId": "35",
		"code": "32",
		"name": "GOPALGANJ SADAR",
		"bn_name": "গোপালগঞ্জ সদর",
		"lat": "",
		"long": ""
	},
	{
		"id": "3543",
		"districtId": "35",
		"code": "43",
		"name": "KASHIANI",
		"bn_name": "কাশিয়ানি",
		"lat": "",
		"long": ""
	},
	{
		"id": "3551",
		"districtId": "35",
		"code": "51",
		"name": "KOTALIPARA",
		"bn_name": "কোটালিপাড়া",
		"lat": "",
		"long": ""
	},
	{
		"id": "3558",
		"districtId": "35",
		"code": "58",
		"name": "MUKSUDPUR",
		"bn_name": "মুকসুদপুর",
		"lat": "",
		"long": ""
	},
	{
		"id": "3591",
		"districtId": "35",
		"code": "91",
		"name": "TUNGIPARA",
		"bn_name": "টুঙ্গিপাড়া",
		"lat": "",
		"long": ""
	},
	{
		"id": "3602",
		"districtId": "36",
		"code": "02",
		"name": "AJMIRIGANJ",
		"bn_name": "আজমিরিগঞ্জ",
		"lat": "",
		"long": ""
	},
	{
		"id": "3605",
		"districtId": "36",
		"code": "05",
		"name": "BAHUBAL",
		"bn_name": "বাহুবল",
		"lat": "",
		"long": ""
	},
	{
		"id": "3611",
		"districtId": "36",
		"code": "11",
		"name": "BANIACHONG",
		"bn_name": "বানিয়াচং",
		"lat": "",
		"long": ""
	},
	{
		"id": "3626",
		"districtId": "36",
		"code": "26",
		"name": "CHUNARUGHAT",
		"bn_name": "চুনারুঘাট",
		"lat": "",
		"long": ""
	},
	{
		"id": "3644",
		"districtId": "36",
		"code": "44",
		"name": "HABIGANJ SADAR",
		"bn_name": "হবিগঞ্জ সদর",
		"lat": "",
		"long": ""
	},
	{
		"id": "3668",
		"districtId": "36",
		"code": "68",
		"name": "LAKHAI",
		"bn_name": "লাক্ষাই",
		"lat": "",
		"long": ""
	},
	{
		"id": "3671",
		"districtId": "36",
		"code": "71",
		"name": "MADHABPUR",
		"bn_name": "মাধবপুর",
		"lat": "",
		"long": ""
	},
	{
		"id": "3677",
		"districtId": "36",
		"code": "77",
		"name": "NABIGANJ",
		"bn_name": "নবীগঞ্জ",
		"lat": "",
		"long": ""
	},
	{
		"id": "3677",
		"districtId": "36",
		"code": "77",
		"name": "NABIGANJ",
		"bn_name": "নবীগঞ্জ",
		"lat": "",
		"long": ""
	},
	{
		"id": "3688",
		"districtId": "36",
		"code": "88",
		"name": "SHAYESTAGANJ",
		"bn_name": "শায়েস্তাগঞ্জ",
		"lat": "",
		"long": ""
	},
	{
		"id": "3813",
		"districtId": "38",
		"code": "13",
		"name": "AKKELPUR",
		"bn_name": "আক্কেলপুর",
		"lat": "",
		"long": ""
	},
	{
		"id": "3847",
		"districtId": "38",
		"code": "47",
		"name": "JOYPURHAT SADAR",
		"bn_name": "জয়পুরহাট সদর",
		"lat": "",
		"long": ""
	},
	{
		"id": "3858",
		"districtId": "38",
		"code": "58",
		"name": "KALAI",
		"bn_name": "কালাই",
		"lat": "",
		"long": ""
	},
	{
		"id": "3861",
		"districtId": "38",
		"code": "61",
		"name": "KHETLAL",
		"bn_name": "খেতলাল",
		"lat": "",
		"long": ""
	},
	{
		"id": "3874",
		"districtId": "38",
		"code": "74",
		"name": "PANCHBIBI",
		"bn_name": "পাঁচবিবি",
		"lat": "",
		"long": ""
	},
	{
		"id": "3907",
		"districtId": "39",
		"code": "07",
		"name": "BAKSHIGANJ",
		"bn_name": "বকসিগঞ্জ",
		"lat": "",
		"long": ""
	},
	{
		"id": "3915",
		"districtId": "39",
		"code": "15",
		"name": "DEWANGANJ",
		"bn_name": "দেওয়ানগঞ্জ",
		"lat": "",
		"long": ""
	},
	{
		"id": "3929",
		"districtId": "39",
		"code": "29",
		"name": "ISLAMPUR",
		"bn_name": "ইসলামপুর",
		"lat": "",
		"long": ""
	},
	{
		"id": "3936",
		"districtId": "39",
		"code": "36",
		"name": "JAMALPUR SADAR",
		"bn_name": "জামালপুর সদর",
		"lat": "",
		"long": ""
	},
	{
		"id": "3958",
		"districtId": "39",
		"code": "58",
		"name": "MADARGANJ",
		"bn_name": "মাদারগঞ্জ",
		"lat": "",
		"long": ""
	},
	{
		"id": "3961",
		"districtId": "39",
		"code": "61",
		"name": "MELANDAHA",
		"bn_name": "মেলানদাহা",
		"lat": "",
		"long": ""
	},
	{
		"id": "3985",
		"districtId": "39",
		"code": "85",
		"name": "SARISHABARI",
		"bn_name": "সরিষাবাড়ি ",
		"lat": "",
		"long": ""
	},
	{
		"id": "4104",
		"districtId": "41",
		"code": "04",
		"name": "ABHAYNAGAR",
		"bn_name": "অভয়নগর",
		"lat": "",
		"long": ""
	},
	{
		"id": "4109",
		"districtId": "41",
		"code": "09",
		"name": "BAGHER PARA",
		"bn_name": "বাঘের পাড়া ",
		"lat": "",
		"long": ""
	},
	{
		"id": "4111",
		"districtId": "41",
		"code": "11",
		"name": "CHAUGACHHA",
		"bn_name": "চৌগাছা",
		"lat": "",
		"long": ""
	},
	{
		"id": "4123",
		"districtId": "41",
		"code": "23",
		"name": "JHIKARGACHHA",
		"bn_name": "ঝিকরগাছা",
		"lat": "",
		"long": ""
	},
	{
		"id": "4138",
		"districtId": "41",
		"code": "38",
		"name": "KESHABPUR",
		"bn_name": "কেশবপুর",
		"lat": "",
		"long": ""
	},
	{
		"id": "4147",
		"districtId": "41",
		"code": "47",
		"name": "JESSOR SADAR",
		"bn_name": "যশোর সদর",
		"lat": "",
		"long": ""
	},
	{
		"id": "4161",
		"districtId": "41",
		"code": "61",
		"name": "MANIRAMPUR",
		"bn_name": "মনিরামপুর ",
		"lat": "",
		"long": ""
	},
	{
		"id": "4190",
		"districtId": "41",
		"code": "90",
		"name": "SHARSHA",
		"bn_name": "সারশা",
		"lat": "",
		"long": ""
	},
	{
		"id": "4240",
		"districtId": "42",
		"code": "40",
		"name": "JHALOKATI SADAR",
		"bn_name": "ঝালকাঠি সদর",
		"lat": "",
		"long": ""
	},
	{
		"id": "4243",
		"districtId": "42",
		"code": "43",
		"name": "KANTHALIA",
		"bn_name": "কাঁঠালিয়া",
		"lat": "",
		"long": ""
	},
	{
		"id": "4273",
		"districtId": "42",
		"code": "73",
		"name": "NALCHITY",
		"bn_name": "নালচিতি",
		"lat": "",
		"long": ""
	},
	{
		"id": "4284",
		"districtId": "42",
		"code": "84",
		"name": "RAJAPUR",
		"bn_name": "রাজাপুর",
		"lat": "",
		"long": ""
	},
	{
		"id": "4414",
		"districtId": "44",
		"code": "14",
		"name": "HARINAKUNDA",
		"bn_name": "হাড়িনাকুন্দা",
		"lat": "",
		"long": ""
	},
	{
		"id": "4419",
		"districtId": "44",
		"code": "19",
		"name": "JHENAIDAH SADAR",
		"bn_name": "ঝিনাইদহ সদর",
		"lat": "",
		"long": ""
	},
	{
		"id": "4433",
		"districtId": "44",
		"code": "33",
		"name": "KALIGANJ",
		"bn_name": "কালীগঞ্জ",
		"lat": "",
		"long": ""
	},
	{
		"id": "4433",
		"districtId": "44",
		"code": "33",
		"name": "KALIGANJ",
		"bn_name": "কালীগঞ্জ",
		"lat": "",
		"long": ""
	},
	{
		"id": "4433",
		"districtId": "44",
		"code": "33",
		"name": "KALIGANJ",
		"bn_name": "কালীগঞ্জ",
		"lat": "",
		"long": ""
	},
	{
		"id": "4433",
		"districtId": "44",
		"code": "33",
		"name": "KALIGANJ",
		"bn_name": "কালীগঞ্জ",
		"lat": "",
		"long": ""
	},
	{
		"id": "4442",
		"districtId": "44",
		"code": "42",
		"name": "KOTCHANDPUR",
		"bn_name": "কোট চাঁদপুর ",
		"lat": "",
		"long": ""
	},
	{
		"id": "4471",
		"districtId": "44",
		"code": "71",
		"name": "MAHESHPUR",
		"bn_name": "মহেশপুর",
		"lat": "",
		"long": ""
	},
	{
		"id": "4480",
		"districtId": "44",
		"code": "80",
		"name": "SHAILKUPA",
		"bn_name": "শৈলকুপা",
		"lat": "",
		"long": ""
	},
	{
		"id": "4643",
		"districtId": "46",
		"code": "43",
		"name": "DIGHINALA",
		"bn_name": "দিঘিনালা ",
		"lat": "",
		"long": ""
	},
	{
		"id": "4649",
		"districtId": "46",
		"code": "49",
		"name": "KHAGRACHHARI SADAR",
		"bn_name": "খাগড়াছড়ি সদর",
		"lat": "",
		"long": ""
	},
	{
		"id": "4661",
		"districtId": "46",
		"code": "61",
		"name": "LAKSHMICHHARI",
		"bn_name": "লক্ষ্মীছড়ি",
		"lat": "",
		"long": ""
	},
	{
		"id": "4665",
		"districtId": "46",
		"code": "65",
		"name": "MAHALCHHARI",
		"bn_name": "মহলছড়ি",
		"lat": "",
		"long": ""
	},
	{
		"id": "4667",
		"districtId": "46",
		"code": "67",
		"name": "MANIKCHHARI",
		"bn_name": "মানিকছড়ি",
		"lat": "",
		"long": ""
	},
	{
		"id": "4670",
		"districtId": "46",
		"code": "70",
		"name": "MATIRANGA",
		"bn_name": "মাটিরাঙ্গা",
		"lat": "",
		"long": ""
	},
	{
		"id": "4677",
		"districtId": "46",
		"code": "77",
		"name": "PANCHHARI",
		"bn_name": "পানছড়ি",
		"lat": "",
		"long": ""
	},
	{
		"id": "4680",
		"districtId": "46",
		"code": "80",
		"name": "RAMGARH",
		"bn_name": "রামগড়",
		"lat": "",
		"long": ""
	},
	{
		"id": "4712",
		"districtId": "47",
		"code": "12",
		"name": "BATIAGHATA",
		"bn_name": "বাটিয়াঘাটা ",
		"lat": "",
		"long": ""
	},
	{
		"id": "4717",
		"districtId": "47",
		"code": "17",
		"name": "DACOPE",
		"bn_name": "ডাকপে",
		"lat": "",
		"long": ""
	},
	{
		"id": "4721",
		"districtId": "47",
		"code": "21",
		"name": "DAULATPUR",
		"bn_name": "দৌলতপুর",
		"lat": "",
		"long": ""
	},
	{
		"id": "4721",
		"districtId": "47",
		"code": "21",
		"name": "DAULATPUR",
		"bn_name": "দৌলতপুর",
		"lat": "",
		"long": ""
	},
	{
		"id": "4730",
		"districtId": "47",
		"code": "30",
		"name": "DUMURIA",
		"bn_name": "ডুমুরিয়া",
		"lat": "",
		"long": ""
	},
	{
		"id": "4740",
		"districtId": "47",
		"code": "40",
		"name": "DIGHALIA",
		"bn_name": "দিঘলিয়া",
		"lat": "",
		"long": ""
	},
	{
		"id": "4753",
		"districtId": "47",
		"code": "53",
		"name": "KOYRA",
		"bn_name": "কয়ড়া",
		"lat": "",
		"long": ""
	},
	{
		"id": "4764",
		"districtId": "47",
		"code": "64",
		"name": "PAIKGACHHA",
		"bn_name": "পাইকগাছা",
		"lat": "",
		"long": ""
	},
	{
		"id": "4769",
		"districtId": "47",
		"code": "69",
		"name": "PHULTALA",
		"bn_name": "ফুলতলা",
		"lat": "",
		"long": ""
	},
	{
		"id": "4775",
		"districtId": "47",
		"code": "75",
		"name": "RUPSA",
		"bn_name": "রূপসা",
		"lat": "",
		"long": ""
	},
	{
		"id": "4794",
		"districtId": "47",
		"code": "94",
		"name": "TEROKHADA",
		"bn_name": "তেরোখাদা",
		"lat": "",
		"long": ""
	},
	{
		"id": "4802",
		"districtId": "48",
		"code": "02",
		"name": "AUSTAGRAM",
		"bn_name": "অষ্টগ্রাম",
		"lat": "",
		"long": ""
	},
	{
		"id": "4806",
		"districtId": "48",
		"code": "06",
		"name": "BAJITPUR",
		"bn_name": "বাজিতপুর",
		"lat": "",
		"long": ""
	},
	{
		"id": "4811",
		"districtId": "48",
		"code": "11",
		"name": "BHAIRAB",
		"bn_name": "ভৈরব",
		"lat": "",
		"long": ""
	},
	{
		"id": "4827",
		"districtId": "48",
		"code": "27",
		"name": "HOSSAINPUR",
		"bn_name": "হোসেনপুর ",
		"lat": "",
		"long": ""
	},
	{
		"id": "4833",
		"districtId": "48",
		"code": "33",
		"name": "ITNA",
		"bn_name": "ইটনা",
		"lat": "",
		"long": ""
	},
	{
		"id": "4842",
		"districtId": "48",
		"code": "42",
		"name": "KARIMGANJ",
		"bn_name": "করিমগঞ্জ",
		"lat": "",
		"long": ""
	},
	{
		"id": "4845",
		"districtId": "48",
		"code": "45",
		"name": "KATIADI",
		"bn_name": "কতিয়াদি",
		"lat": "",
		"long": ""
	},
	{
		"id": "4849",
		"districtId": "48",
		"code": "49",
		"name": "KISHOREGANJ SADAR",
		"bn_name": "কিশোরগঞ্জ সদর",
		"lat": "",
		"long": ""
	},
	{
		"id": "4854",
		"districtId": "48",
		"code": "54",
		"name": "KULIARCHAR",
		"bn_name": "কুলিয়ারচর",
		"lat": "",
		"long": ""
	},
	{
		"id": "4859",
		"districtId": "48",
		"code": "59",
		"name": "MITHAMAIN",
		"bn_name": "মিঠামাইন",
		"lat": "",
		"long": ""
	},
	{
		"id": "4876",
		"districtId": "48",
		"code": "76",
		"name": "NIKLI",
		"bn_name": "নিকলি",
		"lat": "",
		"long": ""
	},
	{
		"id": "4879",
		"districtId": "48",
		"code": "79",
		"name": "PAKUNDIA",
		"bn_name": "পাকুন্ডা",
		"lat": "",
		"long": ""
	},
	{
		"id": "4892",
		"districtId": "48",
		"code": "92",
		"name": "TARAIL",
		"bn_name": "তাড়াইল",
		"lat": "",
		"long": ""
	},
	{
		"id": "4906",
		"districtId": "49",
		"code": "06",
		"name": "BHURUNGAMARI",
		"bn_name": "ভুরুঙ্গামারি",
		"lat": "",
		"long": ""
	},
	{
		"id": "4908",
		"districtId": "49",
		"code": "08",
		"name": "CHAR RAJIBPUR",
		"bn_name": "চর রাজিবপুর",
		"lat": "",
		"long": ""
	},
	{
		"id": "4909",
		"districtId": "49",
		"code": "09",
		"name": "CHILMARI",
		"bn_name": "চিলমারি",
		"lat": "",
		"long": ""
	},
	{
		"id": "4918",
		"districtId": "49",
		"code": "18",
		"name": "PHULBARI",
		"bn_name": "ফুলবাড়ি",
		"lat": "",
		"long": ""
	},
	{
		"id": "4918",
		"districtId": "49",
		"code": "18",
		"name": "PHULBARI",
		"bn_name": "ফুলবাড়ি",
		"lat": "",
		"long": ""
	},
	{
		"id": "4952",
		"districtId": "49",
		"code": "52",
		"name": "KURIGRAM SADAR",
		"bn_name": "কুড়িগ্রাম সদর",
		"lat": "",
		"long": ""
	},
	{
		"id": "4961",
		"districtId": "49",
		"code": "61",
		"name": "NAGESHWARI",
		"bn_name": "নাগেশ্বরী",
		"lat": "",
		"long": ""
	},
	{
		"id": "4977",
		"districtId": "49",
		"code": "77",
		"name": "RAJARHAT",
		"bn_name": "রাজারহাট",
		"lat": "",
		"long": ""
	},
	{
		"id": "4979",
		"districtId": "49",
		"code": "79",
		"name": "RAUMARI",
		"bn_name": "রউমারি",
		"lat": "",
		"long": ""
	},
	{
		"id": "4994",
		"districtId": "49",
		"code": "94",
		"name": "ULIPUR",
		"bn_name": "উলিপুর",
		"lat": "",
		"long": ""
	},
	{
		"id": "5015",
		"districtId": "50",
		"code": "15",
		"name": "BHERAMARA",
		"bn_name": "ভেরামারা",
		"lat": "",
		"long": ""
	},
	{
		"id": "5039",
		"districtId": "50",
		"code": "39",
		"name": "DAULATPUR",
		"bn_name": "দৌলতপুর",
		"lat": "",
		"long": ""
	},
	{
		"id": "5039",
		"districtId": "50",
		"code": "39",
		"name": "DAULATPUR",
		"bn_name": "দৌলতপুর",
		"lat": "",
		"long": ""
	},
	{
		"id": "5063",
		"districtId": "50",
		"code": "63",
		"name": "KHOKSA",
		"bn_name": "খোকসা",
		"lat": "",
		"long": ""
	},
	{
		"id": "5071",
		"districtId": "50",
		"code": "71",
		"name": "KUMARKHALI",
		"bn_name": "কুমারখালি",
		"lat": "",
		"long": ""
	},
	{
		"id": "5079",
		"districtId": "50",
		"code": "79",
		"name": "KUSHTIA SADAR",
		"bn_name": "কুষ্টিয়া সদর",
		"lat": "",
		"long": ""
	},
	{
		"id": "5094",
		"districtId": "50",
		"code": "94",
		"name": "MIRPUR",
		"bn_name": "মিরপুর",
		"lat": "",
		"long": ""
	},
	{
		"id": "5133",
		"districtId": "51",
		"code": "33",
		"name": "KAMALNAGAR",
		"bn_name": "কমলনগর",
		"lat": "",
		"long": ""
	},
	{
		"id": "5143",
		"districtId": "51",
		"code": "43",
		"name": "LAKSHMIPUR SADAR",
		"bn_name": "লক্ষ্মীপুর সদর",
		"lat": "",
		"long": ""
	},
	{
		"id": "5158",
		"districtId": "51",
		"code": "58",
		"name": "ROYPUR",
		"bn_name": "রায়পুর",
		"lat": "",
		"long": ""
	},
	{
		"id": "5165",
		"districtId": "51",
		"code": "65",
		"name": "RAMGANJ",
		"bn_name": "রামগঞ্জ",
		"lat": "",
		"long": ""
	},
	{
		"id": "5173",
		"districtId": "51",
		"code": "73",
		"name": "RAMGATI",
		"bn_name": "রামগতি",
		"lat": "",
		"long": ""
	},
	{
		"id": "5202",
		"districtId": "52",
		"code": "02",
		"name": "ADITMARI",
		"bn_name": "আদিতমারি",
		"lat": "",
		"long": ""
	},
	{
		"id": "5233",
		"districtId": "52",
		"code": "33",
		"name": "HATIBANDHA",
		"bn_name": "হাতিবান্ধা",
		"lat": "",
		"long": ""
	},
	{
		"id": "5239",
		"districtId": "52",
		"code": "39",
		"name": "KALIGANJ",
		"bn_name": "কালীগঞ্জ",
		"lat": "",
		"long": ""
	},
	{
		"id": "5239",
		"districtId": "52",
		"code": "39",
		"name": "KALIGANJ",
		"bn_name": "কালীগঞ্জ",
		"lat": "",
		"long": ""
	},
	{
		"id": "5239",
		"districtId": "52",
		"code": "39",
		"name": "KALIGANJ",
		"bn_name": "কালীগঞ্জ",
		"lat": "",
		"long": ""
	},
	{
		"id": "5239",
		"districtId": "52",
		"code": "39",
		"name": "KALIGANJ",
		"bn_name": "কালীগঞ্জ",
		"lat": "",
		"long": ""
	},
	{
		"id": "5255",
		"districtId": "52",
		"code": "55",
		"name": "LALMONIRHAT SADAR",
		"bn_name": "লালমনিরহাট সদর",
		"lat": "",
		"long": ""
	},
	{
		"id": "5270",
		"districtId": "52",
		"code": "70",
		"name": "PATGRAM",
		"bn_name": "পাটগ্রাম",
		"lat": "",
		"long": ""
	},
	{
		"id": "5440",
		"districtId": "54",
		"code": "40",
		"name": "KALKINI",
		"bn_name": "কালকিনি",
		"lat": "",
		"long": ""
	},
	{
		"id": "5454",
		"districtId": "54",
		"code": "54",
		"name": "MADARIPUR SADAR",
		"bn_name": "মাদারীপুর সদর",
		"lat": "",
		"long": ""
	},
	{
		"id": "5480",
		"districtId": "54",
		"code": "80",
		"name": "RAJOIR",
		"bn_name": "রাজইর",
		"lat": "",
		"long": ""
	},
	{
		"id": "5487",
		"districtId": "54",
		"code": "87",
		"name": "SHIB CHAR",
		"bn_name": "শিবচর",
		"lat": "",
		"long": ""
	},
	{
		"id": "5557",
		"districtId": "55",
		"code": "57",
		"name": "MAGURA SADAR",
		"bn_name": "মাগুরা সদর",
		"lat": "",
		"long": ""
	},
	{
		"id": "5566",
		"districtId": "55",
		"code": "66",
		"name": "MOHAMMADPUR",
		"bn_name": "মোহাম্মাদপুর",
		"lat": "",
		"long": ""
	},
	{
		"id": "5585",
		"districtId": "55",
		"code": "85",
		"name": "SHALIKHA",
		"bn_name": "শালিখা",
		"lat": "",
		"long": ""
	},
	{
		"id": "5595",
		"districtId": "55",
		"code": "95",
		"name": "SREEPUR",
		"bn_name": "শ্রীপুর",
		"lat": "",
		"long": ""
	},
	{
		"id": "5595",
		"districtId": "55",
		"code": "95",
		"name": "SREEPUR",
		"bn_name": "শ্রীপুর",
		"lat": "",
		"long": ""
	},
	{
		"id": "5610",
		"districtId": "56",
		"code": "10",
		"name": "DAULATPUR",
		"bn_name": "দৌলতপুর",
		"lat": "",
		"long": ""
	},
	{
		"id": "5610",
		"districtId": "56",
		"code": "10",
		"name": "DAULATPUR",
		"bn_name": "দৌলতপুর",
		"lat": "",
		"long": ""
	},
	{
		"id": "5622",
		"districtId": "56",
		"code": "22",
		"name": "GHIOR",
		"bn_name": "ঘিওর",
		"lat": "",
		"long": ""
	},
	{
		"id": "5628",
		"districtId": "56",
		"code": "28",
		"name": "HARIRAMPUR",
		"bn_name": "হরিরামপুর",
		"lat": "",
		"long": ""
	},
	{
		"id": "5646",
		"districtId": "56",
		"code": "46",
		"name": "MANIKGANJ SADAR",
		"bn_name": "মানিকগঞ্জ সদর",
		"lat": "",
		"long": ""
	},
	{
		"id": "5670",
		"districtId": "56",
		"code": "70",
		"name": "SATURIA",
		"bn_name": "সাটুরিয়া",
		"lat": "",
		"long": ""
	},
	{
		"id": "5678",
		"districtId": "56",
		"code": "78",
		"name": "SHIBALAYA",
		"bn_name": "শিবালয়",
		"lat": "",
		"long": ""
	},
	{
		"id": "5682",
		"districtId": "56",
		"code": "82",
		"name": "SINGAIR",
		"bn_name": "সিঙ্গাইর",
		"lat": "",
		"long": ""
	},
	{
		"id": "5747",
		"districtId": "57",
		"code": "47",
		"name": "GANGNI",
		"bn_name": "গাংনি",
		"lat": "",
		"long": ""
	},
	{
		"id": "5760",
		"districtId": "57",
		"code": "60",
		"name": "MUJIB NAGAR",
		"bn_name": "মুজিব নগর",
		"lat": "",
		"long": ""
	},
	{
		"id": "5787",
		"districtId": "57",
		"code": "87",
		"name": "MEHERPUR SADAR",
		"bn_name": "মেহেরপুর সদর",
		"lat": "",
		"long": ""
	},
	{
		"id": "5814",
		"districtId": "58",
		"code": "14",
		"name": "BARLEKHA",
		"bn_name": "বড়লেখা",
		"lat": "",
		"long": ""
	},
	{
		"id": "5835",
		"districtId": "58",
		"code": "35",
		"name": "JURI",
		"bn_name": "জুড়ি",
		"lat": "",
		"long": ""
	},
	{
		"id": "5856",
		"districtId": "58",
		"code": "56",
		"name": "KAMALGANJ",
		"bn_name": "কামালগঞ্জ",
		"lat": "",
		"long": ""
	},
	{
		"id": "5865",
		"districtId": "58",
		"code": "65",
		"name": "KULAURA",
		"bn_name": "কুলাউরা",
		"lat": "",
		"long": ""
	},
	{
		"id": "5874",
		"districtId": "58",
		"code": "74",
		"name": "MAULVIBAZAR SADAR",
		"bn_name": "মৌলভীবাজার",
		"lat": "",
		"long": ""
	},
	{
		"id": "5880",
		"districtId": "58",
		"code": "80",
		"name": "RAJNAGAR",
		"bn_name": "রাজনগর",
		"lat": "",
		"long": ""
	},
	{
		"id": "5883",
		"districtId": "58",
		"code": "83",
		"name": "SREEMANGAL",
		"bn_name": "শ্রীমঙ্গল",
		"lat": "",
		"long": ""
	},
	{
		"id": "5924",
		"districtId": "59",
		"code": "24",
		"name": "GAZARIA",
		"bn_name": "গজারিয়া",
		"lat": "",
		"long": ""
	},
	{
		"id": "5944",
		"districtId": "59",
		"code": "44",
		"name": "LOHAJANG",
		"bn_name": "লৌহজং",
		"lat": "",
		"long": ""
	},
	{
		"id": "5956",
		"districtId": "59",
		"code": "56",
		"name": "MUNSHIGANJ SADAR",
		"bn_name": "মুন্সিগঞ্জ সদর",
		"lat": "",
		"long": ""
	},
	{
		"id": "5974",
		"districtId": "59",
		"code": "74",
		"name": "SERAJDIKHAN",
		"bn_name": "সিরাজদিখান",
		"lat": "",
		"long": ""
	},
	{
		"id": "5984",
		"districtId": "59",
		"code": "84",
		"name": "SREENAGAR",
		"bn_name": "শ্রীনগর",
		"lat": "",
		"long": ""
	},
	{
		"id": "5994",
		"districtId": "59",
		"code": "94",
		"name": "TONGIBARI",
		"bn_name": "টঙ্গিবাড়ি",
		"lat": "",
		"long": ""
	},
	{
		"id": "6113",
		"districtId": "61",
		"code": "13",
		"name": "BHALUKA",
		"bn_name": "ভালুকা",
		"lat": "",
		"long": ""
	},
	{
		"id": "6116",
		"districtId": "61",
		"code": "16",
		"name": "DHOBAURA",
		"bn_name": "ধবারুয়া",
		"lat": "",
		"long": ""
	},
	{
		"id": "6120",
		"districtId": "61",
		"code": "20",
		"name": "FULBARIA",
		"bn_name": "ফুলবাড়িয়া",
		"lat": "",
		"long": ""
	},
	{
		"id": "6122",
		"districtId": "61",
		"code": "22",
		"name": "GAFFARGAON",
		"bn_name": "গফরগাঁও",
		"lat": "",
		"long": ""
	},
	{
		"id": "6123",
		"districtId": "61",
		"code": "23",
		"name": "GAURIPUR",
		"bn_name": "গৌরিপুর",
		"lat": "",
		"long": ""
	},
	{
		"id": "6124",
		"districtId": "61",
		"code": "24",
		"name": "HALUAGHAT",
		"bn_name": "হালুয়াঘাট",
		"lat": "",
		"long": ""
	},
	{
		"id": "6131",
		"districtId": "61",
		"code": "31",
		"name": "ISHWARGANJ",
		"bn_name": "ঈশ্বরগঞ্জ",
		"lat": "",
		"long": ""
	},
	{
		"id": "6152",
		"districtId": "61",
		"code": "52",
		"name": "MYMENSINGH SADAR",
		"bn_name": "ময়মনসিং সদর",
		"lat": "",
		"long": ""
	},
	{
		"id": "6165",
		"districtId": "61",
		"code": "65",
		"name": "MUKTAGACHHA",
		"bn_name": "মুক্তাগাছা",
		"lat": "",
		"long": ""
	},
	{
		"id": "6172",
		"districtId": "61",
		"code": "72",
		"name": "NANDAIL",
		"bn_name": "নন্দাইল",
		"lat": "",
		"long": ""
	},
	{
		"id": "6181",
		"districtId": "61",
		"code": "81",
		"name": "PHULPUR",
		"bn_name": "ফুলপুর",
		"lat": "",
		"long": ""
	},
	{
		"id": "6194",
		"districtId": "61",
		"code": "94",
		"name": "TRISHAL",
		"bn_name": "ত্রিশাল",
		"lat": "",
		"long": ""
	},
	{
		"id": "6403",
		"districtId": "64",
		"code": "03",
		"name": "ATRAI",
		"bn_name": "আত্রাই",
		"lat": "",
		"long": ""
	},
	{
		"id": "6406",
		"districtId": "64",
		"code": "06",
		"name": "BADALGACHHI",
		"bn_name": "বদলগাছি",
		"lat": "",
		"long": ""
	},
	{
		"id": "6428",
		"districtId": "64",
		"code": "28",
		"name": "DHAMOIRHAT",
		"bn_name": "ধামইরহাট ",
		"lat": "",
		"long": ""
	},
	{
		"id": "6447",
		"districtId": "64",
		"code": "47",
		"name": "MANDA",
		"bn_name": "মান্দা",
		"lat": "",
		"long": ""
	},
	{
		"id": "6450",
		"districtId": "64",
		"code": "50",
		"name": "MAHADEBPUR",
		"bn_name": "মহাদেবপুর",
		"lat": "",
		"long": ""
	},
	{
		"id": "6460",
		"districtId": "64",
		"code": "60",
		"name": "NAOGAON SADAR",
		"bn_name": "নওগাঁ সদর",
		"lat": "",
		"long": ""
	},
	{
		"id": "6469",
		"districtId": "64",
		"code": "69",
		"name": "NIAMATPUR",
		"bn_name": "নিয়ামতপুর",
		"lat": "",
		"long": ""
	},
	{
		"id": "6475",
		"districtId": "64",
		"code": "75",
		"name": "PATNITALA",
		"bn_name": "পত্নীতলা",
		"lat": "",
		"long": ""
	},
	{
		"id": "6479",
		"districtId": "64",
		"code": "79",
		"name": "PORSHA",
		"bn_name": "পোরশা",
		"lat": "",
		"long": ""
	},
	{
		"id": "6485",
		"districtId": "64",
		"code": "85",
		"name": "RANINAGAR",
		"bn_name": "রাণীনগর",
		"lat": "",
		"long": ""
	},
	{
		"id": "6486",
		"districtId": "64",
		"code": "86",
		"name": "SAPAHAR",
		"bn_name": "সাপাহার",
		"lat": "",
		"long": ""
	},
	{
		"id": "6528",
		"districtId": "65",
		"code": "28",
		"name": "KALIA",
		"bn_name": "কালিয়া",
		"lat": "",
		"long": ""
	},
	{
		"id": "6552",
		"districtId": "65",
		"code": "52",
		"name": "LOHAGARA",
		"bn_name": "লোহাগারা",
		"lat": "",
		"long": ""
	},
	{
		"id": "6552",
		"districtId": "65",
		"code": "52",
		"name": "LOHAGARA",
		"bn_name": "লোহাগাড়া",
		"lat": "",
		"long": ""
	},
	{
		"id": "6576",
		"districtId": "65",
		"code": "76",
		"name": "NARAIL SADAR",
		"bn_name": "নড়াইল সদর",
		"lat": "",
		"long": ""
	},
	{
		"id": "6702",
		"districtId": "67",
		"code": "02",
		"name": "ARAIHAZAR",
		"bn_name": "আড়াইহাজার",
		"lat": "",
		"long": ""
	},
	{
		"id": "6704",
		"districtId": "67",
		"code": "04",
		"name": "SONARGAON",
		"bn_name": "সোনারগাঁও",
		"lat": "",
		"long": ""
	},
	{
		"id": "6706",
		"districtId": "67",
		"code": "06",
		"name": "BANDAR",
		"bn_name": "বান্দার",
		"lat": "",
		"long": ""
	},
	{
		"id": "6758",
		"districtId": "67",
		"code": "58",
		"name": "NARAYANGANJ SADAR",
		"bn_name": "নারায়ানগঞ্জ সদর",
		"lat": "",
		"long": ""
	},
	{
		"id": "6768",
		"districtId": "67",
		"code": "68",
		"name": "RUPGANJ",
		"bn_name": "রূপগঞ্জ",
		"lat": "",
		"long": ""
	},
	{
		"id": "6807",
		"districtId": "68",
		"code": "07",
		"name": "BELABO",
		"bn_name": "বেলাবো",
		"lat": "",
		"long": ""
	},
	{
		"id": "6852",
		"districtId": "68",
		"code": "52",
		"name": "MANOHARDI",
		"bn_name": "মনোহরদি",
		"lat": "",
		"long": ""
	},
	{
		"id": "6860",
		"districtId": "68",
		"code": "60",
		"name": "NARSINGDI SADAR",
		"bn_name": "নরসিংদী সদর",
		"lat": "",
		"long": ""
	},
	{
		"id": "6863",
		"districtId": "68",
		"code": "63",
		"name": "PALASH",
		"bn_name": "পলাশ",
		"lat": "",
		"long": ""
	},
	{
		"id": "6864",
		"districtId": "68",
		"code": "64",
		"name": "ROYPURA",
		"bn_name": "রায়পুরা",
		"lat": "",
		"long": ""
	},
	{
		"id": "6876",
		"districtId": "68",
		"code": "76",
		"name": "SHIBPUR",
		"bn_name": "শিবপুর",
		"lat": "",
		"long": ""
	},
	{
		"id": "6909",
		"districtId": "69",
		"code": "09",
		"name": "BAGATIPARA",
		"bn_name": "বাগাতিপাড়া",
		"lat": "",
		"long": ""
	},
	{
		"id": "6915",
		"districtId": "69",
		"code": "15",
		"name": "BARAIGRAM",
		"bn_name": "বড়াইগ্রাম",
		"lat": "",
		"long": ""
	},
	{
		"id": "6915",
		"districtId": "69",
		"code": "15",
		"name": "BARAIGRAM",
		"bn_name": "বড়াই গ্রাম",
		"lat": "",
		"long": ""
	},
	{
		"id": "6944",
		"districtId": "69",
		"code": "44",
		"name": "LALPUR",
		"bn_name": "লালপুর",
		"lat": "",
		"long": ""
	},
	{
		"id": "6963",
		"districtId": "69",
		"code": "63",
		"name": "NATORE SADAR",
		"bn_name": "নাটোর সদর",
		"lat": "",
		"long": ""
	},
	{
		"id": "6963",
		"districtId": "69",
		"code": "63",
		"name": "NATORE SADAR",
		"bn_name": "নাটোর সদর",
		"lat": "",
		"long": ""
	},
	{
		"id": "7018",
		"districtId": "70",
		"code": "18",
		"name": "BHOLAHAT",
		"bn_name": "ভোলাহাট",
		"lat": "",
		"long": ""
	},
	{
		"id": "7037",
		"districtId": "70",
		"code": "37",
		"name": "GOMASTAPUR",
		"bn_name": "গোমস্তাপুর",
		"lat": "",
		"long": ""
	},
	{
		"id": "7056",
		"districtId": "70",
		"code": "56",
		"name": "NACHOLE",
		"bn_name": "নাচোল",
		"lat": "",
		"long": ""
	},
	{
		"id": "7066",
		"districtId": "70",
		"code": "66",
		"name": "CHAPAINAWABGANJ SADAR",
		"bn_name": "চাঁপাইনবাবগঞ্জ সদর",
		"lat": "",
		"long": ""
	},
	{
		"id": "7088",
		"districtId": "70",
		"code": "88",
		"name": "SHIBGANJ",
		"bn_name": "শিবগঞ্জ",
		"lat": "",
		"long": ""
	},
	{
		"id": "7088",
		"districtId": "70",
		"code": "88",
		"name": "SHIBGANJ",
		"bn_name": "শিবগঞ্জ",
		"lat": "",
		"long": ""
	},
	{
		"id": "7204",
		"districtId": "72",
		"code": "04",
		"name": "ATPARA",
		"bn_name": "আটপাড়া",
		"lat": "",
		"long": ""
	},
	{
		"id": "7209",
		"districtId": "72",
		"code": "09",
		"name": "BARHATTA",
		"bn_name": "বরহাট্টা",
		"lat": "",
		"long": ""
	},
	{
		"id": "7218",
		"districtId": "72",
		"code": "18",
		"name": "DURGAPUR",
		"bn_name": "দুর্গাপুর",
		"lat": "",
		"long": ""
	},
	{
		"id": "7218",
		"districtId": "72",
		"code": "18",
		"name": "DURGAPUR",
		"bn_name": "দুর্গাপুর",
		"lat": "",
		"long": ""
	},
	{
		"id": "7238",
		"districtId": "72",
		"code": "38",
		"name": "KHALIAJURI",
		"bn_name": "খালিয়াজুরি",
		"lat": "",
		"long": ""
	},
	{
		"id": "7240",
		"districtId": "72",
		"code": "40",
		"name": "KALMAKANDA",
		"bn_name": "কলমাকান্দা",
		"lat": "",
		"long": ""
	},
	{
		"id": "7247",
		"districtId": "72",
		"code": "47",
		"name": "KENDUA",
		"bn_name": "কেন্দুয়া",
		"lat": "",
		"long": ""
	},
	{
		"id": "7256",
		"districtId": "72",
		"code": "56",
		"name": "MADAN",
		"bn_name": "মদন",
		"lat": "",
		"long": ""
	},
	{
		"id": "7263",
		"districtId": "72",
		"code": "63",
		"name": "MOHANGANJ",
		"bn_name": "মোহনগঞ্জ",
		"lat": "",
		"long": ""
	},
	{
		"id": "7274",
		"districtId": "72",
		"code": "74",
		"name": "NETROKONA SADAR",
		"bn_name": "নেত্রকোনা সদর",
		"lat": "",
		"long": ""
	},
	{
		"id": "7283",
		"districtId": "72",
		"code": "83",
		"name": "PURBADHALA",
		"bn_name": "পূর্বধলা",
		"lat": "",
		"long": ""
	},
	{
		"id": "7312",
		"districtId": "73",
		"code": "12",
		"name": "DIMLA",
		"bn_name": "ডিমলা",
		"lat": "",
		"long": ""
	},
	{
		"id": "7315",
		"districtId": "73",
		"code": "15",
		"name": "DOMAR",
		"bn_name": "ডোমার",
		"lat": "",
		"long": ""
	},
	{
		"id": "7336",
		"districtId": "73",
		"code": "36",
		"name": "JALDHAKA",
		"bn_name": "জলঢাকা",
		"lat": "",
		"long": ""
	},
	{
		"id": "7345",
		"districtId": "73",
		"code": "45",
		"name": "KISHOREGANJ",
		"bn_name": "কিশোরগঞ্জ",
		"lat": "",
		"long": ""
	},
	{
		"id": "7364",
		"districtId": "73",
		"code": "64",
		"name": "NILPHAMARI SADAR",
		"bn_name": "নীলফামারী সদর",
		"lat": "",
		"long": ""
	},
	{
		"id": "7385",
		"districtId": "73",
		"code": "85",
		"name": "SAIDPUR",
		"bn_name": "সৈয়দপুর",
		"lat": "",
		"long": ""
	},
	{
		"id": "7507",
		"districtId": "75",
		"code": "07",
		"name": "BEGUMGANJ",
		"bn_name": "বেগমগঞ্জ",
		"lat": "",
		"long": ""
	},
	{
		"id": "7510",
		"districtId": "75",
		"code": "10",
		"name": "CHATKHIL",
		"bn_name": "চাটখিল",
		"lat": "",
		"long": ""
	},
	{
		"id": "7521",
		"districtId": "75",
		"code": "21",
		"name": "COMPANYGANJ",
		"bn_name": "কোম্পানীগঞ্জ",
		"lat": "",
		"long": ""
	},
	{
		"id": "7536",
		"districtId": "75",
		"code": "36",
		"name": "HATIYA",
		"bn_name": "হাতিয়া",
		"lat": "",
		"long": ""
	},
	{
		"id": "7547",
		"districtId": "75",
		"code": "47",
		"name": "KABIRHAT",
		"bn_name": "কবিরহাট ",
		"lat": "",
		"long": ""
	},
	{
		"id": "7580",
		"districtId": "75",
		"code": "80",
		"name": "SENBAGH",
		"bn_name": "সেনবাগ",
		"lat": "",
		"long": ""
	},
	{
		"id": "7583",
		"districtId": "75",
		"code": "83",
		"name": "SONAIMURI",
		"bn_name": "সোনাইমুরি",
		"lat": "",
		"long": ""
	},
	{
		"id": "7585",
		"districtId": "75",
		"code": "85",
		"name": "SUBARNACHAR",
		"bn_name": "সুবর্ণ চর ",
		"lat": "",
		"long": ""
	},
	{
		"id": "7587",
		"districtId": "75",
		"code": "87",
		"name": "NOAKHALI SADAR",
		"bn_name": "নোয়াখালী সদর",
		"lat": "",
		"long": ""
	},
	{
		"id": "7605",
		"districtId": "76",
		"code": "05",
		"name": "ATGHARIA",
		"bn_name": "আটঘরিয়া",
		"lat": "",
		"long": ""
	},
	{
		"id": "7616",
		"districtId": "76",
		"code": "16",
		"name": "BERA",
		"bn_name": "বেড়া",
		"lat": "",
		"long": ""
	},
	{
		"id": "7619",
		"districtId": "76",
		"code": "19",
		"name": "BHANGURA",
		"bn_name": "ভাঙ্গুরা",
		"lat": "",
		"long": ""
	},
	{
		"id": "7622",
		"districtId": "76",
		"code": "22",
		"name": "CHATMOHAR",
		"bn_name": "চাটমোহর",
		"lat": "",
		"long": ""
	},
	{
		"id": "7633",
		"districtId": "76",
		"code": "33",
		"name": "FARIDPUR",
		"bn_name": "ফরিদপুর",
		"lat": "",
		"long": ""
	},
	{
		"id": "7639",
		"districtId": "76",
		"code": "39",
		"name": "ISHWARDI",
		"bn_name": "ঈশ্বরদী",
		"lat": "",
		"long": ""
	},
	{
		"id": "7655",
		"districtId": "76",
		"code": "55",
		"name": "PABNA SADAR",
		"bn_name": "পাবনা সদর",
		"lat": "",
		"long": ""
	},
	{
		"id": "7672",
		"districtId": "76",
		"code": "72",
		"name": "SANTHIA",
		"bn_name": "সাথিয়া",
		"lat": "",
		"long": ""
	},
	{
		"id": "7683",
		"districtId": "76",
		"code": "83",
		"name": "SUJANAGAR",
		"bn_name": "সুজানগর",
		"lat": "",
		"long": ""
	},
	{
		"id": "7704",
		"districtId": "77",
		"code": "04",
		"name": "ATWARI",
		"bn_name": "আটোয়ারি",
		"lat": "",
		"long": ""
	},
	{
		"id": "7725",
		"districtId": "77",
		"code": "25",
		"name": "BODA",
		"bn_name": "বোদা",
		"lat": "",
		"long": ""
	},
	{
		"id": "7734",
		"districtId": "77",
		"code": "34",
		"name": "DEBIGANJ",
		"bn_name": "দেবীগঞ্জ",
		"lat": "",
		"long": ""
	},
	{
		"id": "7773",
		"districtId": "77",
		"code": "73",
		"name": "PANCHAGARH SADAR",
		"bn_name": "পঞ্চগড় সদর",
		"lat": "",
		"long": ""
	},
	{
		"id": "7790",
		"districtId": "77",
		"code": "90",
		"name": "TENTULIA",
		"bn_name": "তেঁতুলিয়া",
		"lat": "",
		"long": ""
	},
	{
		"id": "7838",
		"districtId": "78",
		"code": "38",
		"name": "BAUPHAL",
		"bn_name": "বাউফল",
		"lat": "",
		"long": ""
	},
	{
		"id": "7852",
		"districtId": "78",
		"code": "52",
		"name": "DASHMINA",
		"bn_name": "দশমিনা",
		"lat": "",
		"long": ""
	},
	{
		"id": "7855",
		"districtId": "78",
		"code": "55",
		"name": "DUMKI",
		"bn_name": "ডুমকি",
		"lat": "",
		"long": ""
	},
	{
		"id": "7857",
		"districtId": "78",
		"code": "57",
		"name": "GALACHIPA",
		"bn_name": "গলাচিপা",
		"lat": "",
		"long": ""
	},
	{
		"id": "7866",
		"districtId": "78",
		"code": "66",
		"name": "KALA PARA",
		"bn_name": "কালাপারা",
		"lat": "",
		"long": ""
	},
	{
		"id": "7876",
		"districtId": "78",
		"code": "76",
		"name": "MIRZAGANJ",
		"bn_name": "মির্জাগঞ্জ ",
		"lat": "",
		"long": ""
	},
	{
		"id": "7895",
		"districtId": "78",
		"code": "95",
		"name": "PATUAKHALI SADAR",
		"bn_name": "পটুয়াখালী সদর",
		"lat": "",
		"long": ""
	},
	{
		"id": "7897",
		"districtId": "78",
		"code": "97",
		"name": "RANGABALI",
		"bn_name": "রাঙ্গাবালি",
		"lat": "",
		"long": ""
	},
	{
		"id": "7914",
		"districtId": "79",
		"code": "14",
		"name": "BHANDARIA",
		"bn_name": "ভ্যান্ডারিয়া",
		"lat": "",
		"long": ""
	},
	{
		"id": "7947",
		"districtId": "79",
		"code": "47",
		"name": "KAWKHALI",
		"bn_name": "কাউখালি",
		"lat": "",
		"long": ""
	},
	{
		"id": "7958",
		"districtId": "79",
		"code": "58",
		"name": "MATHBARIA",
		"bn_name": "মাঠবাড়িয়া",
		"lat": "",
		"long": ""
	},
	{
		"id": "7976",
		"districtId": "79",
		"code": "76",
		"name": "NAZIRPUR",
		"bn_name": "নাজিরপুর",
		"lat": "",
		"long": ""
	},
	{
		"id": "7980",
		"districtId": "79",
		"code": "80",
		"name": "PIROJPUR SADAR",
		"bn_name": "পিরোজপুর সদর",
		"lat": "",
		"long": ""
	},
	{
		"id": "7987",
		"districtId": "79",
		"code": "87",
		"name": "NESARABAD (SWARUPKATI)",
		"bn_name": "নেসারাবাদ",
		"lat": "",
		"long": ""
	},
	{
		"id": "8110",
		"districtId": "81",
		"code": "10",
		"name": "BAGHA",
		"bn_name": "বাঘা",
		"lat": "",
		"long": ""
	},
	{
		"id": "8112",
		"districtId": "81",
		"code": "12",
		"name": "BAGHMARA",
		"bn_name": "বাগমারা",
		"lat": "",
		"long": ""
	},
	{
		"id": "8125",
		"districtId": "81",
		"code": "25",
		"name": "CHARGHAT",
		"bn_name": "চারঘাট",
		"lat": "",
		"long": ""
	},
	{
		"id": "8131",
		"districtId": "81",
		"code": "31",
		"name": "DURGAPUR",
		"bn_name": "দুর্গাপুর",
		"lat": "",
		"long": ""
	},
	{
		"id": "8131",
		"districtId": "81",
		"code": "31",
		"name": "DURGAPUR",
		"bn_name": "দুর্গাপুর",
		"lat": "",
		"long": ""
	},
	{
		"id": "8134",
		"districtId": "81",
		"code": "34",
		"name": "GODAGARI",
		"bn_name": "গোদাগারি",
		"lat": "",
		"long": ""
	},
	{
		"id": "8153",
		"districtId": "81",
		"code": "53",
		"name": "MOHANPUR",
		"bn_name": "মোহনপুর",
		"lat": "",
		"long": ""
	},
	{
		"id": "8172",
		"districtId": "81",
		"code": "72",
		"name": "PABA",
		"bn_name": "পবা",
		"lat": "",
		"long": ""
	},
	{
		"id": "8182",
		"districtId": "81",
		"code": "82",
		"name": "PUTHIA",
		"bn_name": "পুঠিয়া",
		"lat": "",
		"long": ""
	},
	{
		"id": "8194",
		"districtId": "81",
		"code": "94",
		"name": "TANORE",
		"bn_name": "তানোর",
		"lat": "",
		"long": ""
	},
	{
		"id": "8207",
		"districtId": "82",
		"code": "07",
		"name": "BALIAKANDI",
		"bn_name": "বালিয়াকান্দি",
		"lat": "",
		"long": ""
	},
	{
		"id": "8229",
		"districtId": "82",
		"code": "29",
		"name": "GOALANDA",
		"bn_name": "গোয়ালন্দ",
		"lat": "",
		"long": ""
	},
	{
		"id": "8247",
		"districtId": "82",
		"code": "47",
		"name": "KALUKHALI",
		"bn_name": "কালুখালি",
		"lat": "",
		"long": ""
	},
	{
		"id": "8273",
		"districtId": "82",
		"code": "73",
		"name": "PANGSHA",
		"bn_name": "পাংশা",
		"lat": "",
		"long": ""
	},
	{
		"id": "8276",
		"districtId": "82",
		"code": "76",
		"name": "RAJBARI SADAR",
		"bn_name": "রাজবাড়ি সদর",
		"lat": "",
		"long": ""
	},
	{
		"id": "8407",
		"districtId": "84",
		"code": "07",
		"name": "BAGHAICHHARI",
		"bn_name": "বাঘাইছড়ি",
		"lat": "",
		"long": ""
	},
	{
		"id": "8421",
		"districtId": "84",
		"code": "21",
		"name": "BARKAL",
		"bn_name": "বরকল",
		"lat": "",
		"long": ""
	},
	{
		"id": "8425",
		"districtId": "84",
		"code": "25",
		"name": "KAUKHALI",
		"bn_name": "কাউখালি",
		"lat": "",
		"long": ""
	},
	{
		"id": "8429",
		"districtId": "84",
		"code": "29",
		"name": "BELAI CHHARI",
		"bn_name": "বেলাইছড়ি",
		"lat": "",
		"long": ""
	},
	{
		"id": "8436",
		"districtId": "84",
		"code": "36",
		"name": "KAPTAI",
		"bn_name": "কাপ্তাই",
		"lat": "",
		"long": ""
	},
	{
		"id": "8447",
		"districtId": "84",
		"code": "47",
		"name": "JURAI CHHARI",
		"bn_name": "জুরাইছড়ি",
		"lat": "",
		"long": ""
	},
	{
		"id": "8458",
		"districtId": "84",
		"code": "58",
		"name": "LANGADU",
		"bn_name": "লাঙ্গাডু",
		"lat": "",
		"long": ""
	},
	{
		"id": "8475",
		"districtId": "84",
		"code": "75",
		"name": "NANIARCHAR",
		"bn_name": "নান্নেরচর ",
		"lat": "",
		"long": ""
	},
	{
		"id": "8478",
		"districtId": "84",
		"code": "78",
		"name": "RAJASTHALI",
		"bn_name": "রাজাস্থলি",
		"lat": "",
		"long": ""
	},
	{
		"id": "8487",
		"districtId": "84",
		"code": "87",
		"name": "RANGAMATI SADAR",
		"bn_name": "রাঙ্গামাটি সদর",
		"lat": "",
		"long": ""
	},
	{
		"id": "8503",
		"districtId": "85",
		"code": "03",
		"name": "BADARGANJ",
		"bn_name": "বদরগঞ্জ",
		"lat": "",
		"long": ""
	},
	{
		"id": "8527",
		"districtId": "85",
		"code": "27",
		"name": "GANGACHARA",
		"bn_name": "গঙ্গাচরা",
		"lat": "",
		"long": ""
	},
	{
		"id": "8542",
		"districtId": "85",
		"code": "42",
		"name": "KAUNIA",
		"bn_name": "কাউনিয়া",
		"lat": "",
		"long": ""
	},
	{
		"id": "8549",
		"districtId": "85",
		"code": "49",
		"name": "RANGPUR SADAR",
		"bn_name": "রংপুর সদর",
		"lat": "",
		"long": ""
	},
	{
		"id": "8558",
		"districtId": "85",
		"code": "58",
		"name": "MITHA PUKUR",
		"bn_name": "মিঠাপুকুর",
		"lat": "",
		"long": ""
	},
	{
		"id": "8573",
		"districtId": "85",
		"code": "73",
		"name": "PIRGACHHA",
		"bn_name": "পীরগাছা",
		"lat": "",
		"long": ""
	},
	{
		"id": "8576",
		"districtId": "85",
		"code": "76",
		"name": "PIRGANJ",
		"bn_name": "পীরগঞ্জ",
		"lat": "",
		"long": ""
	},
	{
		"id": "8576",
		"districtId": "85",
		"code": "76",
		"name": "PIRGANJ",
		"bn_name": "পীরগঞ্জ",
		"lat": "",
		"long": ""
	},
	{
		"id": "8592",
		"districtId": "85",
		"code": "92",
		"name": "TARAGANJ",
		"bn_name": "তারাগঞ্জ",
		"lat": "",
		"long": ""
	},
	{
		"id": "8614",
		"districtId": "86",
		"code": "14",
		"name": "BHEDARGANJ",
		"bn_name": "ভেদারগঞ্জ",
		"lat": "",
		"long": ""
	},
	{
		"id": "8625",
		"districtId": "86",
		"code": "25",
		"name": "DAMUDYA",
		"bn_name": "দামুদিয়া",
		"lat": "",
		"long": ""
	},
	{
		"id": "8636",
		"districtId": "86",
		"code": "36",
		"name": "GOSAIRHAT",
		"bn_name": "গোসাইর হাট ",
		"lat": "",
		"long": ""
	},
	{
		"id": "8665",
		"districtId": "86",
		"code": "65",
		"name": "NARIA",
		"bn_name": "নড়িয়া",
		"lat": "",
		"long": ""
	},
	{
		"id": "8669",
		"districtId": "86",
		"code": "69",
		"name": "SHARIATPUR SADAR",
		"bn_name": "শরীয়তপুর সদর ",
		"lat": "",
		"long": ""
	},
	{
		"id": "8694",
		"districtId": "86",
		"code": "94",
		"name": "ZANJIRA",
		"bn_name": "জাজিরা",
		"lat": "",
		"long": ""
	},
	{
		"id": "8704",
		"districtId": "87",
		"code": "04",
		"name": "ASSASUNI",
		"bn_name": "আসসাশুনি ",
		"lat": "",
		"long": ""
	},
	{
		"id": "8725",
		"districtId": "87",
		"code": "25",
		"name": "DEBHATA",
		"bn_name": "দেভাটা",
		"lat": "",
		"long": ""
	},
	{
		"id": "8743",
		"districtId": "87",
		"code": "43",
		"name": "KALAROA",
		"bn_name": "কলরোয়া",
		"lat": "",
		"long": ""
	},
	{
		"id": "8747",
		"districtId": "87",
		"code": "47",
		"name": "KALIGANJ",
		"bn_name": "কালীগঞ্জ",
		"lat": "",
		"long": ""
	},
	{
		"id": "8747",
		"districtId": "87",
		"code": "47",
		"name": "KALIGANJ",
		"bn_name": "কালীগঞ্জ",
		"lat": "",
		"long": ""
	},
	{
		"id": "8747",
		"districtId": "87",
		"code": "47",
		"name": "KALIGANJ",
		"bn_name": "কালীগঞ্জ",
		"lat": "",
		"long": ""
	},
	{
		"id": "8747",
		"districtId": "87",
		"code": "47",
		"name": "KALIGANJ",
		"bn_name": "কালীগঞ্জ",
		"lat": "",
		"long": ""
	},
	{
		"id": "8782",
		"districtId": "87",
		"code": "82",
		"name": "SATKHIRA SADAR",
		"bn_name": "সাতক্ষীরা সদর",
		"lat": "",
		"long": ""
	},
	{
		"id": "8786",
		"districtId": "87",
		"code": "86",
		"name": "SHYAMNAGAR",
		"bn_name": "শ্যামনগর",
		"lat": "",
		"long": ""
	},
	{
		"id": "8790",
		"districtId": "87",
		"code": "90",
		"name": "TALA",
		"bn_name": "তালা",
		"lat": "",
		"long": ""
	},
	{
		"id": "8811",
		"districtId": "88",
		"code": "11",
		"name": "BELKUCHI",
		"bn_name": "বেলকুচি",
		"lat": "",
		"long": ""
	},
	{
		"id": "8827",
		"districtId": "88",
		"code": "27",
		"name": "CHAUHALI",
		"bn_name": "চৌহালি",
		"lat": "",
		"long": ""
	},
	{
		"id": "8844",
		"districtId": "88",
		"code": "44",
		"name": "KAMARKHANDA",
		"bn_name": "কামারখান্দা",
		"lat": "",
		"long": ""
	},
	{
		"id": "8850",
		"districtId": "88",
		"code": "50",
		"name": "KAZIPUR",
		"bn_name": "কাজীপুর",
		"lat": "",
		"long": ""
	},
	{
		"id": "8861",
		"districtId": "88",
		"code": "61",
		"name": "ROYGANJ",
		"bn_name": "রায়গঞ্জ",
		"lat": "",
		"long": ""
	},
	{
		"id": "8867",
		"districtId": "88",
		"code": "67",
		"name": "SHAHJADPUR",
		"bn_name": "শাহজাদপুর",
		"lat": "",
		"long": ""
	},
	{
		"id": "8878",
		"districtId": "88",
		"code": "78",
		"name": "SIRAJGANJ SADAR",
		"bn_name": "সিরাজগঞ্জ সদর",
		"lat": "",
		"long": ""
	},
	{
		"id": "8889",
		"districtId": "88",
		"code": "89",
		"name": "TARASH",
		"bn_name": "তাড়াশ",
		"lat": "",
		"long": ""
	},
	{
		"id": "8894",
		"districtId": "88",
		"code": "94",
		"name": "ULLAH PARA",
		"bn_name": "উল্লাপাড়া",
		"lat": "",
		"long": ""
	},
	{
		"id": "8937",
		"districtId": "89",
		"code": "37",
		"name": "JHENAIGATI",
		"bn_name": "ঝিনাইগাতী",
		"lat": "",
		"long": ""
	},
	{
		"id": "8967",
		"districtId": "89",
		"code": "67",
		"name": "NAKLA",
		"bn_name": "নকলা",
		"lat": "",
		"long": ""
	},
	{
		"id": "8970",
		"districtId": "89",
		"code": "70",
		"name": "NALITABARI",
		"bn_name": "নালিতাবাড়ী",
		"lat": "",
		"long": ""
	},
	{
		"id": "8988",
		"districtId": "89",
		"code": "88",
		"name": "SHERPUR SADAR",
		"bn_name": "শেরপুর সদর",
		"lat": "",
		"long": ""
	},
	{
		"id": "8990",
		"districtId": "89",
		"code": "90",
		"name": "SREEBARDI",
		"bn_name": "শ্রীবরদী",
		"lat": "",
		"long": ""
	},
	{
		"id": "9018",
		"districtId": "90",
		"code": "18",
		"name": "BISHWAMBARPUR",
		"bn_name": "বিশ্বম্ভরপুর",
		"lat": "",
		"long": ""
	},
	{
		"id": "9023",
		"districtId": "90",
		"code": "23",
		"name": "CHHATAK",
		"bn_name": "ছাতক",
		"lat": "",
		"long": ""
	},
	{
		"id": "9029",
		"districtId": "90",
		"code": "29",
		"name": "DERAI",
		"bn_name": "দিরাই",
		"lat": "",
		"long": ""
	},
	{
		"id": "9032",
		"districtId": "90",
		"code": "32",
		"name": "DHARAMPASHA",
		"bn_name": "ধর্মপাশা",
		"lat": "",
		"long": ""
	},
	{
		"id": "9033",
		"districtId": "90",
		"code": "33",
		"name": "DOWARABAZAR",
		"bn_name": "দোয়ারাবাজার",
		"lat": "",
		"long": ""
	},
	{
		"id": "9047",
		"districtId": "90",
		"code": "47",
		"name": "JAGANNATHPUR",
		"bn_name": "জগন্নাথপুর",
		"lat": "",
		"long": ""
	},
	{
		"id": "9050",
		"districtId": "90",
		"code": "50",
		"name": "JAMALGANJ",
		"bn_name": "জামালগঞ্জ",
		"lat": "",
		"long": ""
	},
	{
		"id": "9086",
		"districtId": "90",
		"code": "86",
		"name": "SHALLA",
		"bn_name": "শাল্লা",
		"lat": "",
		"long": ""
	},
	{
		"id": "9089",
		"districtId": "90",
		"code": "89",
		"name": "SUNAMGANJ SADAR",
		"bn_name": "সুনামগঞ্জ সদর",
		"lat": "",
		"long": ""
	},
	{
		"id": "9092",
		"districtId": "90",
		"code": "92",
		"name": "TAHIRPUR",
		"bn_name": "তাহিরপুর",
		"lat": "",
		"long": ""
	},
	{
		"id": "9108",
		"districtId": "91",
		"code": "08",
		"name": "BALAGANJ",
		"bn_name": "বালাগঞ্জ",
		"lat": "",
		"long": ""
	},
	{
		"id": "9117",
		"districtId": "91",
		"code": "17",
		"name": "BEANI BAZAR",
		"bn_name": "বিয়ানীবাজার",
		"lat": "",
		"long": ""
	},
	{
		"id": "9120",
		"districtId": "91",
		"code": "20",
		"name": "BISHWANATH",
		"bn_name": "বিশ্বনাথ",
		"lat": "",
		"long": ""
	},
	{
		"id": "9127",
		"districtId": "91",
		"code": "27",
		"name": "COMPANIGANJ",
		"bn_name": "কোম্পানিগঞ্জ",
		"lat": "",
		"long": ""
	},
	{
		"id": "9131",
		"districtId": "91",
		"code": "31",
		"name": "DAKSHIN SURMA",
		"bn_name": "দক্ষিণ সুরমা",
		"lat": "",
		"long": ""
	},
	{
		"id": "9135",
		"districtId": "91",
		"code": "35",
		"name": "FENCHUGANJ",
		"bn_name": "ফেঞ্চুগঞ্জ",
		"lat": "",
		"long": ""
	},
	{
		"id": "9138",
		"districtId": "91",
		"code": "38",
		"name": "GOLAPGANJ",
		"bn_name": "গোলাপগঞ্জ",
		"lat": "",
		"long": ""
	},
	{
		"id": "9141",
		"districtId": "91",
		"code": "41",
		"name": "GOWAINGHAT",
		"bn_name": "গোয়াইনঘাট",
		"lat": "",
		"long": ""
	},
	{
		"id": "9153",
		"districtId": "91",
		"code": "53",
		"name": "JAINTIAPUR",
		"bn_name": "জৈন্তাপুর",
		"lat": "",
		"long": ""
	},
	{
		"id": "9159",
		"districtId": "91",
		"code": "59",
		"name": "KANAIGHAT",
		"bn_name": "কানাইঘাট",
		"lat": "",
		"long": ""
	},
	{
		"id": "9162",
		"districtId": "91",
		"code": "62",
		"name": "SYLHET SADAR",
		"bn_name": "সিলেট সদর",
		"lat": "",
		"long": ""
	},
	{
		"id": "9194",
		"districtId": "91",
		"code": "94",
		"name": "ZAKIGANJ",
		"bn_name": "জাকিগঞ্জ",
		"lat": "",
		"long": ""
	},
	{
		"id": "9309",
		"districtId": "93",
		"code": "09",
		"name": "BASAIL",
		"bn_name": "বসাইল",
		"lat": "",
		"long": ""
	},
	{
		"id": "9319",
		"districtId": "93",
		"code": "19",
		"name": "BHUAPUR",
		"bn_name": "ভুয়াপুর",
		"lat": "",
		"long": ""
	},
	{
		"id": "9323",
		"districtId": "93",
		"code": "23",
		"name": "DELDUAR",
		"bn_name": "দেলদুয়ার",
		"lat": "",
		"long": ""
	},
	{
		"id": "9325",
		"districtId": "93",
		"code": "25",
		"name": "DHANBARI",
		"bn_name": "ধানবাড়ি",
		"lat": "",
		"long": ""
	},
	{
		"id": "9328",
		"districtId": "93",
		"code": "28",
		"name": "GHATAIL",
		"bn_name": "ঘাটাইল",
		"lat": "",
		"long": ""
	},
	{
		"id": "9338",
		"districtId": "93",
		"code": "38",
		"name": "GOPALPUR",
		"bn_name": "গোপালপুর",
		"lat": "",
		"long": ""
	},
	{
		"id": "9347",
		"districtId": "93",
		"code": "47",
		"name": "KALIHATI",
		"bn_name": "কালিহাতি",
		"lat": "",
		"long": ""
	},
	{
		"id": "9357",
		"districtId": "93",
		"code": "57",
		"name": "MADHUPUR",
		"bn_name": "মধুপুর",
		"lat": "",
		"long": ""
	},
	{
		"id": "9366",
		"districtId": "93",
		"code": "66",
		"name": "MIRZAPUR",
		"bn_name": "মির্জাপুর",
		"lat": "",
		"long": ""
	},
	{
		"id": "9376",
		"districtId": "93",
		"code": "76",
		"name": "NAGARPUR",
		"bn_name": "নগরপুর",
		"lat": "",
		"long": ""
	},
	{
		"id": "9385",
		"districtId": "93",
		"code": "85",
		"name": "SAKHIPUR",
		"bn_name": "সখিপুর",
		"lat": "",
		"long": ""
	},
	{
		"id": "9395",
		"districtId": "93",
		"code": "95",
		"name": "TANGAIL SADAR",
		"bn_name": "টাঙ্গাইল সদর",
		"lat": "",
		"long": ""
	},
	{
		"id": "9408",
		"districtId": "94",
		"code": "08",
		"name": "BALIADANGI",
		"bn_name": "বালিয়াডাঙ্গি",
		"lat": "",
		"long": ""
	},
	{
		"id": "9451",
		"districtId": "94",
		"code": "51",
		"name": "HARIPUR",
		"bn_name": "হরিপুর",
		"lat": "",
		"long": ""
	},
	{
		"id": "9482",
		"districtId": "94",
		"code": "82",
		"name": "PIRGANJ",
		"bn_name": "পীরগঞ্জ",
		"lat": "",
		"long": ""
	},
	{
		"id": "9482",
		"districtId": "94",
		"code": "82",
		"name": "PIRGANJ",
		"bn_name": "পীরগঞ্জ",
		"lat": "",
		"long": ""
	},
	{
		"id": "9486",
		"districtId": "94",
		"code": "86",
		"name": "RANISANKAIL",
		"bn_name": "রাণীসংকইল",
		"lat": "",
		"long": ""
	},
	{
		"id": "9494",
		"districtId": "94",
		"code": "94",
		"name": "THAKURGAON SADAR",
		"bn_nIdame": "ঠাকুরগাঁও সদর",
		"lat": "",
		"long": ""
	}
]
